[{"OBJECT_NAME":"KENT RIDGE 1","OBJECT_ID":"2015-077B","EPOCH":"2026-04-01T06:30:16.724160","MEAN_MOTION":15.22641396,"ECCENTRICITY":0.0008502,"INCLINATION":14.9794,"RA_OF_ASC_NODE":117.7941,"ARG_OF_PERICENTER":233.8967,"MEAN_ANOMALY":126.0568,"EPHEMERIS_TYPE":0,"CLASSIFICATION_TYPE":"U","NORAD_CAT_ID":41167,"ELEMENT_SET_NO":999,"REV_AT_EPOCH":56935,"BSTAR":0.00022407,"MEAN_MOTION_DOT":6.144e-5,"MEAN_MOTION_DDOT":0},{"OBJECT_NAME":"GAOFEN-4","OBJECT_ID":"2015-083A","EPOCH":"2026-04-01T11:42:00.684288","MEAN_MOTION":1.00272497,"ECCENTRICITY":0.0006112,"INCLINATION":0.3848,"RA_OF_ASC_NODE":82.9495,"ARG_OF_PERICENTER":88.7294,"MEAN_ANOMALY":299.3575,"EPHEMERIS_TYPE":0,"CLASSIFICATION_TYPE":"U","NORAD_CAT_ID":41194,"ELEMENT_SET_NO":999,"REV_AT_EPOCH":3776,"BSTAR":0,"MEAN_MOTION_DOT":-3.44e-6,"MEAN_MOTION_DDOT":0},{"OBJECT_NAME":"JASON-3","OBJECT_ID":"2016-002A","EPOCH":"2026-04-01T11:56:48.812352","MEAN_MOTION":12.87627667,"ECCENTRICITY":0.0007646,"INCLINATION":66.0403,"RA_OF_ASC_NODE":287.0687,"ARG_OF_PERICENTER":276.4086,"MEAN_ANOMALY":83.6062,"EPHEMERIS_TYPE":0,"CLASSIFICATION_TYPE":"U","NORAD_CAT_ID":41240,"ELEMENT_SET_NO":999,"REV_AT_EPOCH":47737,"BSTAR":9.1002e-5,"MEAN_MOTION_DOT":-3.9e-7,"MEAN_MOTION_DDOT":0},{"OBJECT_NAME":"SENTINEL-3A","OBJECT_ID":"2016-011A","EPOCH":"2026-04-01T11:52:00.765120","MEAN_MOTION":14.26734749,"ECCENTRICITY":0.000116,"INCLINATION":98.6303,"RA_OF_ASC_NODE":159.9607,"ARG_OF_PERICENTER":93.1986,"MEAN_ANOMALY":266.9327,"EPHEMERIS_TYPE":0,"CLASSIFICATION_TYPE":"U","NORAD_CAT_ID":41335,"ELEMENT_SET_NO":999,"REV_AT_EPOCH":52712,"BSTAR":7.8436e-5,"MEAN_MOTION_DOT":1.46e-6,"MEAN_MOTION_DDOT":0},{"OBJECT_NAME":"ZIYUAN 3-02 (ZY 3-02)","OBJECT_ID":"2016-033A","EPOCH":"2026-04-01T11:57:33.454368","MEAN_MOTION":15.2127881,"ECCENTRICITY":0.001329,"INCLINATION":97.3871,"RA_OF_ASC_NODE":168.7306,"ARG_OF_PERICENTER":199.3172,"MEAN_ANOMALY":160.7561,"EPHEMERIS_TYPE":0,"CLASSIFICATION_TYPE":"U","NORAD_CAT_ID":41556,"ELEMENT_SET_NO":999,"REV_AT_EPOCH":54632,"BSTAR":0.0003093,"MEAN_MOTION_DOT":6.862e-5,"MEAN_MOTION_DDOT":0},{"OBJECT_NAME":"CARTOSAT-2C","OBJECT_ID":"2016-040A","EPOCH":"2026-04-01T11:03:17.486784","MEAN_MOTION":15.1929356,"ECCENTRICITY":0.0009936,"INCLINATION":97.4565,"RA_OF_ASC_NODE":152.4621,"ARG_OF_PERICENTER":49.6009,"MEAN_ANOMALY":310.6091,"EPHEMERIS_TYPE":0,"CLASSIFICATION_TYPE":"U","NORAD_CAT_ID":41599,"ELEMENT_SET_NO":999,"REV_AT_EPOCH":54206,"BSTAR":0.00025411,"MEAN_MOTION_DOT":5.301e-5,"MEAN_MOTION_DDOT":0},{"OBJECT_NAME":"SKYSAT-C1","OBJECT_ID":"2016-040C","EPOCH":"2026-04-01T01:32:55.147488","MEAN_MOTION":15.34980374,"ECCENTRICITY":0.00011,"INCLINATION":96.9656,"RA_OF_ASC_NODE":127.0014,"ARG_OF_PERICENTER":356.4939,"MEAN_ANOMALY":3.6297,"EPHEMERIS_TYPE":0,"CLASSIFICATION_TYPE":"U","NORAD_CAT_ID":41601,"ELEMENT_SET_NO":999,"REV_AT_EPOCH":54603,"BSTAR":0.00034748,"MEAN_MOTION_DOT":0.00011722,"MEAN_MOTION_DDOT":0},{"OBJECT_NAME":"LAPAN-A3","OBJECT_ID":"2016-040E","EPOCH":"2026-04-01T11:40:56.758656","MEAN_MOTION":15.3258082,"ECCENTRICITY":0.0008522,"INCLINATION":97.1485,"RA_OF_ASC_NODE":90.1858,"ARG_OF_PERICENTER":295.4606,"MEAN_ANOMALY":64.5754,"EPHEMERIS_TYPE":0,"CLASSIFICATION_TYPE":"U","NORAD_CAT_ID":41603,"ELEMENT_SET_NO":999,"REV_AT_EPOCH":54306,"BSTAR":0.00012667,"MEAN_MOTION_DOT":3.913e-5,"MEAN_MOTION_DDOT":0},{"OBJECT_NAME":"GAOFEN-3","OBJECT_ID":"2016-049A","EPOCH":"2026-04-01T11:46:45.225408","MEAN_MOTION":14.42223059,"ECCENTRICITY":0.000164,"INCLINATION":98.4042,"RA_OF_ASC_NODE":100.4257,"ARG_OF_PERICENTER":73.706,"MEAN_ANOMALY":286.431,"EPHEMERIS_TYPE":0,"CLASSIFICATION_TYPE":"U","NORAD_CAT_ID":41727,"ELEMENT_SET_NO":999,"REV_AT_EPOCH":50759,"BSTAR":0.00013227,"MEAN_MOTION_DOT":3.92e-6,"MEAN_MOTION_DDOT":0},{"OBJECT_NAME":"SKYSAT-C4","OBJECT_ID":"2016-058B","EPOCH":"2026-04-01T12:09:57.969216","MEAN_MOTION":15.46200531,"ECCENTRICITY":0.0002761,"INCLINATION":96.9251,"RA_OF_ASC_NODE":116.591,"ARG_OF_PERICENTER":126.9687,"MEAN_ANOMALY":233.1817,"EPHEMERIS_TYPE":0,"CLASSIFICATION_TYPE":"U","NORAD_CAT_ID":41771,"ELEMENT_SET_NO":999,"REV_AT_EPOCH":53361,"BSTAR":0.00038098,"MEAN_MOTION_DOT":0.0001865,"MEAN_MOTION_DDOT":0},{"OBJECT_NAME":"SKYSAT-C5","OBJECT_ID":"2016-058C","EPOCH":"2026-04-01T01:37:14.485728","MEAN_MOTION":15.34140705,"ECCENTRICITY":0.0001776,"INCLINATION":97.0568,"RA_OF_ASC_NODE":135.1577,"ARG_OF_PERICENTER":183.9773,"MEAN_ANOMALY":176.1457,"EPHEMERIS_TYPE":0,"CLASSIFICATION_TYPE":"U","NORAD_CAT_ID":41772,"ELEMENT_SET_NO":999,"REV_AT_EPOCH":53192,"BSTAR":0.00034486,"MEAN_MOTION_DOT":0.00011325,"MEAN_MOTION_DDOT":0},{"OBJECT_NAME":"SKYSAT-C2","OBJECT_ID":"2016-058D","EPOCH":"2026-04-01T12:22:06.116448","MEAN_MOTION":15.40327313,"ECCENTRICITY":0.0002561,"INCLINATION":97.0244,"RA_OF_ASC_NODE":116.5641,"ARG_OF_PERICENTER":8.8872,"MEAN_ANOMALY":351.242,"EPHEMERIS_TYPE":0,"CLASSIFICATION_TYPE":"U","NORAD_CAT_ID":41773,"ELEMENT_SET_NO":999,"REV_AT_EPOCH":53324,"BSTAR":0.00033734,"MEAN_MOTION_DOT":0.00013534,"MEAN_MOTION_DDOT":0},{"OBJECT_NAME":"SKYSAT-C3","OBJECT_ID":"2016-058E","EPOCH":"2026-04-01T00:59:58.501248","MEAN_MOTION":15.49357714,"ECCENTRICITY":0.000248,"INCLINATION":96.9131,"RA_OF_ASC_NODE":124.9762,"ARG_OF_PERICENTER":112.684,"MEAN_ANOMALY":247.4675,"EPHEMERIS_TYPE":0,"CLASSIFICATION_TYPE":"U","NORAD_CAT_ID":41774,"ELEMENT_SET_NO":999,"REV_AT_EPOCH":53415,"BSTAR":0.00050295,"MEAN_MOTION_DOT":0.00027528,"MEAN_MOTION_DDOT":0},{"OBJECT_NAME":"ALSAT-1B","OBJECT_ID":"2016-059C","EPOCH":"2026-04-01T12:11:35.130336","MEAN_MOTION":14.72212191,"ECCENTRICITY":0.0010622,"INCLINATION":97.779,"RA_OF_ASC_NODE":103.574,"ARG_OF_PERICENTER":109.3646,"MEAN_ANOMALY":250.8711,"EPHEMERIS_TYPE":0,"CLASSIFICATION_TYPE":"U","NORAD_CAT_ID":41785,"ELEMENT_SET_NO":999,"REV_AT_EPOCH":50929,"BSTAR":7.8917e-5,"MEAN_MOTION_DOT":4.51e-6,"MEAN_MOTION_DDOT":0},{"OBJECT_NAME":"PATHFINDER 1","OBJECT_ID":"2016-059E","EPOCH":"2026-04-01T10:26:53.935872","MEAN_MOTION":14.67559085,"ECCENTRICITY":0.0029987,"INCLINATION":97.8182,"RA_OF_ASC_NODE":94.1782,"ARG_OF_PERICENTER":91.0005,"MEAN_ANOMALY":269.4636,"EPHEMERIS_TYPE":0,"CLASSIFICATION_TYPE":"U","NORAD_CAT_ID":41787,"ELEMENT_SET_NO":999,"REV_AT_EPOCH":50845,"BSTAR":0.00016432,"MEAN_MOTION_DOT":8.92e-6,"MEAN_MOTION_DDOT":0},{"OBJECT_NAME":"SCATSAT 1","OBJECT_ID":"2016-059H","EPOCH":"2026-04-01T04:16:41.416032","MEAN_MOTION":14.79339301,"ECCENTRICITY":0.0055893,"INCLINATION":98.1258,"RA_OF_ASC_NODE":154.1375,"ARG_OF_PERICENTER":135.4336,"MEAN_ANOMALY":225.139,"EPHEMERIS_TYPE":0,"CLASSIFICATION_TYPE":"U","NORAD_CAT_ID":41790,"ELEMENT_SET_NO":999,"REV_AT_EPOCH":9020,"BSTAR":0.00022637,"MEAN_MOTION_DOT":1.674e-5,"MEAN_MOTION_DDOT":0},{"OBJECT_NAME":"GOKTURK 1A","OBJECT_ID":"2016-073A","EPOCH":"2026-04-01T11:55:25.087296","MEAN_MOTION":14.62773016,"ECCENTRICITY":0.0001345,"INCLINATION":98.134,"RA_OF_ASC_NODE":347.3394,"ARG_OF_PERICENTER":80.2493,"MEAN_ANOMALY":279.886,"EPHEMERIS_TYPE":0,"CLASSIFICATION_TYPE":"U","NORAD_CAT_ID":41875,"ELEMENT_SET_NO":999,"REV_AT_EPOCH":49761,"BSTAR":0.00011627,"MEAN_MOTION_DOT":5.46e-6,"MEAN_MOTION_DDOT":0}]
