KENT RIDGE 1            
1 41167U 15077B   26091.27102690  .00006144  00000+0  22407-3 0  9996
2 41167  14.9794 117.7941 0008502 233.8967 126.0568 15.22641396569353
GAOFEN-4                
1 41194U 15083A   26091.48750792 -.00000344  00000+0  00000+0 0  9996
2 41194   0.3848  82.9495 0006112  88.7294 299.3575  1.00272497 37764
JASON-3                 
1 41240U 16002A   26091.49778718 -.00000039  00000+0  91002-4 0  9997
2 41240  66.0403 287.0687 0007646 276.4086  83.6062 12.87627667477371
SENTINEL-3A             
1 41335U 16011A   26091.49445330  .00000146  00000+0  78436-4 0  9997
2 41335  98.6303 159.9607 0001160  93.1986 266.9327 14.26734749527127
ZIYUAN 3-02 (ZY 3-02)   
1 41556U 16033A   26091.49830387  .00006862  00000+0  30930-3 0  9993
2 41556  97.3871 168.7306 0013290 199.3172 160.7561 15.21278810546327
CARTOSAT-2C             
1 41599U 16040A   26091.46061906  .00005301  00000+0  25411-3 0  9993
2 41599  97.4565 152.4621 0009936  49.6009 310.6091 15.19293560542060
SKYSAT-C1               
1 41601U 16040C   26091.06452717  .00011722  00000+0  34748-3 0  9994
2 41601  96.9656 127.0014 0001100 356.4939   3.6297 15.34980374546030
LAPAN-A3                
1 41603U 16040E   26091.48676804  .00003913  00000+0  12667-3 0  9996
2 41603  97.1485  90.1858 0008522 295.4606  64.5754 15.32580820543063
GAOFEN-3                
1 41727U 16049A   26091.49080122  .00000392  00000+0  13227-3 0  9996
2 41727  98.4042 100.4257 0001640  73.7060 286.4310 14.42223059507595
SKYSAT-C4               
1 41771U 16058B   26091.50692094  .00018650  00000+0  38098-3 0  9993
2 41771  96.9251 116.5910 0002761 126.9687 233.1817 15.46200531533612
SKYSAT-C5               
1 41772U 16058C   26091.06752877  .00011325  00000+0  34486-3 0  9990
2 41772  97.0568 135.1577 0001776 183.9773 176.1457 15.34140705531927
SKYSAT-C2               
1 41773U 16058D   26091.51534857  .00013534  00000+0  33734-3 0  9996
2 41773  97.0244 116.5641 0002561   8.8872 351.2420 15.40327313533244
SKYSAT-C3               
1 41774U 16058E   26091.04164932  .00027528  00000+0  50295-3 0  9997
2 41774  96.9131 124.9762 0002480 112.6840 247.4675 15.49357714534150
ALSAT-1B                
1 41785U 16059C   26091.50804549  .00000451  00000+0  78917-4 0  9994
2 41785  97.7790 103.5740 0010622 109.3646 250.8711 14.72212191509295
PATHFINDER 1            
1 41787U 16059E   26091.43534648  .00000892  00000+0  16432-3 0  9990
2 41787  97.8182  94.1782 0029987  91.0005 269.4636 14.67559085508453
SCATSAT 1               
1 41790U 16059H   26091.17825713  .00001674  00000+0  22637-3 0  9994
2 41790  98.1258 154.1375 0055893 135.4336 225.1390 14.79339301 90200
GOKTURK 1A              
1 41875U 16073A   26091.49681814  .00000546  00000+0  11627-3 0  9995
2 41875  98.1340 347.3394 0001345  80.2493 279.8860 14.62773016497618
